TANSAT                  
1 41898U 16081A   26136.58473973  .00000584  00000+0  13209-3 0  9994
2 41898  98.5362 135.9095 0021667  49.0947 311.2124 14.59923307500015
JILIN-1 03              
1 41914U 17002B   26136.47047917  .00010425  00000+0  25669-3 0  9998
2 41914  97.1952 144.0213 0003652 293.8413  66.2451 15.40767817516973
CARTOSAT-2D             
1 41948U 17008A   26136.61021118  .00004392  00000+0  21161-3 0  9991
2 41948  97.4134 196.5005 0004462   8.2420 351.8887 15.19240620512787
CARTOSAT-2E             
1 42767U 17036C   26136.62763512  .00005603  00000+0  26920-3 0  9998
2 42767  97.4302 196.9453 0004270  65.9236 294.2446 15.19220158493353
IRIDIUM 113             
1 42803U 17039A   26136.28637940  .00000083  00000+0  22464-4 0  9996
2 42803  86.3968 335.5197 0002260  92.6440 267.5015 14.34218037466619
NORSAT 2                
1 42828U 17042D   26136.59280585  .00008800  00000+0  39636-3 0  9993
2 42828  97.4018 310.5547 0010447 156.0481 204.1243 15.21248141482932
TECHNOSAT               
1 42829U 17042E   26136.39875670  .00002316  00000+0  16806-3 0  9997
2 42829  97.4243 295.2780 0017344 198.7687 161.2902 15.04744793481923
FLYING LAPTOP           
1 42831U 17042G   26136.58737285  .00002247  00000+0  18034-3 0  9998
2 42831  97.4540 293.3683 0017761 229.3529 130.6153 15.00924353481719
WNISAT 1R               
1 42835U 17042L   26136.44085815  .00001703  00000+0  13564-3 0  9991
2 42835  97.4799 293.7065 0009972 272.0005  88.0078 15.01607058481742
LEMUR-2-GREENBERG       
1 42837U 17042N   26136.44891931  .00015885  00000+0  54348-3 0  9998
2 42837  97.3803 317.2488 0010385 116.3668 243.8640 15.30280290483537
LEMUR-2-FURIAUS         
1 42840U 17042R   26136.61587847  .00013707  00000+0  48649-3 0  9997
2 42840  97.3757 315.4428 0008093 166.9165 193.2287 15.29137631483385
CORVUS BC2              
1 42846U 17042X   26136.57179599  .00001853  00000+0  13074-3 0  9992
2 42846  97.4038 299.1621 0012178 214.2043 145.8401 15.06080005482307
CORVUS BC1              
1 42847U 17042Y   26136.56999768  .00001750  00000+0  12318-3 0  9996
2 42847  97.4069 299.9537 0011633 188.9736 171.1286 15.06250939482338
VRSS-2                  
1 42954U 17060A   26136.57092525  .00000278  00000+0  42090-4 0  9996
2 42954  97.6540 175.7188 0016402 198.3624 161.6999 14.81137801463772
MOHAMMED VI-A           
1 43005U 17070A   26136.64319447  .00000807  00000+0  12139-3 0  9996
2 43005  97.9571 209.4062 0001536 105.4061 254.7319 14.77095402459320
FENGYUN 3D              
1 43010U 17072A   26136.64504758 -.00000104  00000+0 -27112-4 0  9995
2 43010  99.0105 110.5005 0002291 113.3132 246.8285 14.19731728440516
NOAA 20 (JPSS-1)        
1 43013U 17073A   26136.56434061 -.00000013  00000+0  14686-4 0  9999
2 43013  98.7762  76.3103 0001393  47.3555 312.7738 14.19505224439984
MAKERSAT 0              
1 43016U 17073D   26136.62058351  .00022402  00000+0  62457-3 0  9996
2 43016  97.4674  18.9198 0111103  26.3633 334.3202 15.30697756461635
RADFXSAT (FOX-1B)       
1 43017U 17073E   26136.58326253  .00008593  00000+0  37667-3 0  9991
2 43017  97.4745   4.4549 0153839  77.9056 283.9364 15.12101985460617
JILIN-1 04              
1 43022U 17074A   26136.61325636  .00011681  00000+0  27971-3 0  9995
2 43022  97.4833 245.4110 0002739 321.6391  38.4661 15.41596607469405
JILIN-1 05              
1 43023U 17074B   26136.60650000  .00006509  00000+0  20439-3 0  9996
2 43023  97.4840 242.3518 0004716 356.5363   3.5845 15.33357177469163
JILIN-1 06              
1 43024U 17074C   26136.57593230  .00004608  00000+0  14557-3 0  9996
2 43024  97.4769 239.3663 0006721   4.8900 355.2406 15.33317794468990
IRIDIUM 116             
1 43072U 17083C   26136.05170675  .00000143  00000+0  43938-4 0  9992
2 43072  86.3960 335.4428 0002048  79.8466 280.2961 14.34219299439562
IRIDIUM 130             
1 43073U 17083D   26136.57813833  .00000077  00000+0  20283-4 0  9994
2 43073  86.3968 335.4950 0002229  81.6479 278.4970 14.34218191439588
SUPERVIEW-1 03          
1 43099U 18002A   26136.56020463  .00014812  00000+0  38111-3 0  9992
2 43099  97.3136 221.4724 0046281 295.2426  64.4026 15.38227549463505
CARTOSAT-2F             
1 43111U 18004A   26136.59331218  .00000106  00000+0  82433-5 0  9994
2 43111  97.4816 196.5316 0001698  50.1615 309.9768 15.19203075462535
LKW-3                   
1 43146U 18006A   26136.63113002  .00005575  00000+0  16887-3 0  9991
2 43146  97.6576 295.9955 0004040  70.2406 289.9272 15.34589300463876
