OBJECT_NAME,OBJECT_ID,EPOCH,MEAN_MOTION,ECCENTRICITY,INCLINATION,RA_OF_ASC_NODE,ARG_OF_PERICENTER,MEAN_ANOMALY,EPHEMERIS_TYPE,CLASSIFICATION_TYPE,NORAD_CAT_ID,ELEMENT_SET_NO,REV_AT_EPOCH,BSTAR,MEAN_MOTION_DOT,MEAN_MOTION_DDOT
TANSAT,2016-081A,2026-05-16T14:02:01.512672,14.59923307,.00216679,98.5362,135.9095,49.0947,311.2124,0,U,41898,999,50001,.13208587E-3,.584E-5,0
JILIN-1 03,2017-002B,2026-05-16T11:17:29.400288,15.40767817,.00036524,97.1952,144.0213,293.8413,66.2451,0,U,41914,999,51697,.2566855E-3,.10425E-3,0
CARTOSAT-2D,2017-008A,2026-05-16T14:38:42.245952,15.19240620,.00044626,97.4134,196.5005,8.2420,351.8887,0,U,41948,999,51278,.21161146E-3,.4392E-4,0
CARTOSAT-2E,2017-036C,2026-05-16T15:03:47.674368,15.19220158,.00042707,97.4302,196.9453,65.9236,294.2446,0,U,42767,999,49335,.26919625E-3,.5603E-4,0
IRIDIUM 113,2017-039A,2026-05-16T06:52:23.180160,14.34218037,.00022602,86.3968,335.5197,92.6440,267.5015,0,U,42803,999,46661,.22463975E-4,.83E-6,0
NORSAT 2,2017-042D,2026-05-16T14:13:38.425440,15.21248141,.00104473,97.4018,310.5547,156.0481,204.1243,0,U,42828,999,48293,.39636176E-3,.88E-4,0
TECHNOSAT,2017-042E,2026-05-16T09:34:12.578880,15.04744793,.00173448,97.4243,295.2780,198.7687,161.2902,0,U,42829,999,48192,.16806307E-3,.2316E-4,0
FLYING LAPTOP,2017-042G,2026-05-16T14:05:49.014240,15.00924353,.00177611,97.4540,293.3683,229.3529,130.6153,0,U,42831,999,48171,.18033713E-3,.2247E-4,0
WNISAT 1R,2017-042L,2026-05-16T10:34:50.144160,15.01607058,.00099718,97.4799,293.7065,272.0005,88.0078,0,U,42835,999,48174,.1356409E-3,.1703E-4,0
LEMUR-2-GREENBERG,2017-042N,2026-05-16T10:46:26.628384,15.30280290,.00103846,97.3803,317.2488,116.3668,243.8640,0,U,42837,999,48353,.54348412E-3,.15885E-3,0
LEMUR-2-FURIAUS,2017-042R,2026-05-16T14:46:51.899808,15.29137631,.00080934,97.3757,315.4428,166.9165,193.2287,0,U,42840,999,48338,.48649043E-3,.13707E-3,0
CORVUS BC2,2017-042X,2026-05-16T13:43:23.173536,15.06080005,.00121786,97.4038,299.1621,214.2043,145.8401,0,U,42846,999,48230,.13074193E-3,.1853E-4,0
CORVUS BC1,2017-042Y,2026-05-16T13:40:47.799552,15.06250939,.00116331,97.4069,299.9537,188.9736,171.1286,0,U,42847,999,48233,.12317561E-3,.175E-4,0
VRSS-2,2017-060A,2026-05-16T13:42:07.941600,14.81137801,.00164021,97.6540,175.7188,198.3624,161.6999,0,U,42954,999,46377,.42089512E-4,.278E-5,0
MOHAMMED VI-A,2017-070A,2026-05-16T15:26:12.002208,14.77095402,.00015362,97.9571,209.4062,105.4061,254.7319,0,U,43005,999,45932,.12139252E-3,.807E-5,0
FENGYUN 3D,2017-072A,2026-05-16T15:28:52.110912,14.19731728,.00022916,99.0105,110.5005,113.3132,246.8285,0,U,43010,999,44051,-.27111552E-4,-.104E-5,0
NOAA 20 (JPSS-1),2017-073A,2026-05-16T13:32:39.028704,14.19505224,.0001393,98.7762,76.3103,47.3555,312.7738,0,U,43013,999,43998,.14685881E-4,-.13E-6,0
MAKERSAT 0,2017-073D,2026-05-16T14:53:38.415264,15.30697756,.01111032,97.4674,18.9198,26.3633,334.3202,0,U,43016,999,46163,.62456576E-3,.22402E-3,0
RADFXSAT (FOX-1B),2017-073E,2026-05-16T13:59:53.882592,15.12101985,.01538394,97.4745,4.4549,77.9056,283.9364,0,U,43017,999,46061,.37666844E-3,.8593E-4,0
JILIN-1 04,2017-074A,2026-05-16T14:43:05.349504,15.41596607,.00027396,97.4833,245.4110,321.6391,38.4661,0,U,43022,999,46940,.27971138E-3,.11681E-3,0
JILIN-1 05,2017-074B,2026-05-16T14:33:21.600000,15.33357177,.00047161,97.4840,242.3518,356.5363,3.5845,0,U,43023,999,46916,.20438766E-3,.6509E-4,0
JILIN-1 06,2017-074C,2026-05-16T13:49:20.550720,15.33317794,.00067216,97.4769,239.3663,4.8900,355.2406,0,U,43024,999,46899,.14557424E-3,.4608E-4,0
IRIDIUM 116,2017-083C,2026-05-16T01:14:27.463200,14.34219299,.00020486,86.3960,335.4428,79.8466,280.2961,0,U,43072,999,43956,.43938354E-4,.143E-5,0
IRIDIUM 130,2017-083D,2026-05-16T13:52:31.151712,14.34218191,.00022291,86.3968,335.4950,81.6479,278.4970,0,U,43073,999,43958,.20282701E-4,.77E-6,0
SUPERVIEW-1 03,2018-002A,2026-05-16T13:26:41.680896,15.38227549,.00462813,97.3136,221.4724,295.2426,64.4026,0,U,43099,999,46350,.3811145E-3,.14812E-3,0
CARTOSAT-2F,2018-004A,2026-05-16T14:14:22.172352,15.19203075,.00016987,97.4816,196.5316,50.1615,309.9768,0,U,43111,999,46253,.8243285E-5,.106E-5,0
LKW-3,2018-006A,2026-05-16T15:08:49.633728,15.34589300,.00040403,97.6576,295.9955,70.2406,289.9272,0,U,43146,999,46387,.16886645E-3,.5575E-4,0
